{
  "type": "FeatureCollection",
  "features": [
    {
      "type": "Feature",
      "properties": {
        "norad_id": 15362,
        "name": "NOVA 3",
        "group": "nnss",
        "lat": -85.97694697391272,
        "lon": -101.19313335121444,
        "alt_km": 1170.1023386183979,
        "timestamp": "2025-12-13T18:50:04.699071+00:00",
        "meta_object_name": "NOVA 3",
        "meta_object_id": "1984-110A",
        "meta_epoch": "2025-12-13T06:52:25.016160",
        "meta_mean_motion": 13.23044636,
        "meta_eccentricity": 0.00304552,
        "meta_inclination": 90.1223,
        "meta_ra_of_asc_node": 80.5412,
        "meta_arg_of_pericenter": 330.3572,
        "meta_mean_anomaly": 83.5527,
        "meta_ephemeris_type": 0,
        "meta_classification_type": "U",
        "meta_norad_cat_id": 15362,
        "meta_element_set_no": 999,
        "meta_rev_at_epoch": 98706,
        "meta_bstar": 0.00017968502,
        "meta_mean_motion_dot": 8.4e-07,
        "meta_mean_motion_ddot": 0,
        "tle_line1": "1 15362U 84110A   25347.28640065  .00000084  00000+0  17969-3 0  9999",
        "tle_line2": "2 15362  90.1223  80.5412 0030455 330.3572  83.5527 13.23044636987068"
      },
      "geometry": {
        "type": "Point",
        "coordinates": [
          -101.19313335121444,
          -85.97694697391272
        ]
      }
    },
    {
      "type": "Feature",
      "properties": {
        "norad_id": 15935,
        "name": "OSCAR 30",
        "group": "nnss",
        "lat": 34.53851477222878,
        "lon": 99.75031934382363,
        "alt_km": 1032.820244217016,
        "timestamp": "2025-12-13T18:50:04.699082+00:00",
        "meta_object_name": "OSCAR 30",
        "meta_object_id": "1985-066A",
        "meta_epoch": "2025-12-13T07:55:50.875680",
        "meta_mean_motion": 13.36078448,
        "meta_eccentricity": 0.01693998,
        "meta_inclination": 90.1652,
        "meta_ra_of_asc_node": 99.8567,
        "meta_arg_of_pericenter": 82.2597,
        "meta_mean_anomaly": 289.7854,
        "meta_ephemeris_type": 0,
        "meta_classification_type": "U",
        "meta_norad_cat_id": 15935,
        "meta_element_set_no": 999,
        "meta_rev_at_epoch": 96461,
        "meta_bstar": 0.00019459302,
        "meta_mean_motion_dot": 1.18e-06,
        "meta_mean_motion_ddot": 0,
        "tle_line1": "1 15935U 85066A   25347.33044995  .00000118  00000+0  19459-3 0  9996",
        "tle_line2": "2 15935  90.1652  99.8567 0169399  82.2597 289.7854 13.36078448964615"
      },
      "geometry": {
        "type": "Point",
        "coordinates": [
          99.75031934382363,
          34.53851477222878
        ]
      }
    },
    {
      "type": "Feature",
      "properties": {
        "norad_id": 15936,
        "name": "OSCAR 24",
        "group": "nnss",
        "lat": 68.34317708113484,
        "lon": -87.22504257187693,
        "alt_km": 1000.876260454088,
        "timestamp": "2025-12-13T18:50:04.699093+00:00",
        "meta_object_name": "OSCAR 24",
        "meta_object_id": "1985-066B",
        "meta_epoch": "2025-12-13T07:32:25.939104",
        "meta_mean_motion": 13.35935903,
        "meta_eccentricity": 0.01704623,
        "meta_inclination": 90.179,
        "meta_ra_of_asc_node": 92.3156,
        "meta_arg_of_pericenter": 88.7358,
        "meta_mean_anomaly": 280.1889,
        "meta_ephemeris_type": 0,
        "meta_classification_type": "U",
        "meta_norad_cat_id": 15936,
        "meta_element_set_no": 999,
        "meta_rev_at_epoch": 96651,
        "meta_bstar": 0.00017727285,
        "meta_mean_motion_dot": 1.09e-06,
        "meta_mean_motion_ddot": 0,
        "tle_line1": "1 15936U 85066B   25347.31418911  .00000109  00000+0  17727-3 0  9994",
        "tle_line2": "2 15936  90.1790  92.3156 0170462  88.7358 280.1889 13.35935903966511"
      },
      "geometry": {
        "type": "Point",
        "coordinates": [
          -87.22504257187693,
          68.34317708113484
        ]
      }
    },
    {
      "type": "Feature",
      "properties": {
        "norad_id": 17070,
        "name": "POLAR BEAR",
        "group": "nnss",
        "lat": 85.58452336289618,
        "lon": -1.2336149620074357,
        "alt_km": 945.292158494286,
        "timestamp": "2025-12-13T18:50:04.699104+00:00",
        "meta_object_name": "POLAR BEAR",
        "meta_object_id": "1986-088A",
        "meta_epoch": "2025-12-13T06:59:34.795680",
        "meta_mean_motion": 13.75250891,
        "meta_eccentricity": 0.00410042,
        "meta_inclination": 89.6173,
        "meta_ra_of_asc_node": 183.7517,
        "meta_arg_of_pericenter": 117.6351,
        "meta_mean_anomaly": 55.6343,
        "meta_ephemeris_type": 0,
        "meta_classification_type": "U",
        "meta_norad_cat_id": 17070,
        "meta_element_set_no": 999,
        "meta_rev_at_epoch": 95986,
        "meta_bstar": 0.00014788839,
        "meta_mean_motion_dot": 1.54e-06,
        "meta_mean_motion_ddot": 0,
        "tle_line1": "1 17070U 86088A   25347.29137495  .00000154  00000+0  14789-3 0  9997",
        "tle_line2": "2 17070  89.6173 183.7517 0041004 117.6351  55.6343 13.75250891959860"
      },
      "geometry": {
        "type": "Point",
        "coordinates": [
          -1.2336149620074357,
          85.58452336289618
        ]
      }
    },
    {
      "type": "Feature",
      "properties": {
        "norad_id": 18361,
        "name": "OSCAR 27",
        "group": "nnss",
        "lat": -58.42673773371684,
        "lon": -101.29789117969564,
        "alt_km": 1024.8419204353286,
        "timestamp": "2025-12-13T18:50:04.699128+00:00",
        "meta_object_name": "OSCAR 27",
        "meta_object_id": "1987-080A",
        "meta_epoch": "2025-12-13T06:56:14.468640",
        "meta_mean_motion": 13.44906896,
        "meta_eccentricity": 0.01029546,
        "meta_inclination": 90.3743,
        "meta_ra_of_asc_node": 79.293,
        "meta_arg_of_pericenter": 222.2209,
        "meta_mean_anomaly": 137.0978,
        "meta_ephemeris_type": 0,
        "meta_classification_type": "U",
        "meta_norad_cat_id": 18361,
        "meta_element_set_no": 999,
        "meta_rev_at_epoch": 87564,
        "meta_bstar": 0.00022675514,
        "meta_mean_motion_dot": 1.45e-06,
        "meta_mean_motion_ddot": 0,
        "tle_line1": "1 18361U 87080A   25347.28905635  .00000145  00000+0  22676-3 0  9996",
        "tle_line2": "2 18361  90.3743  79.2930 0102954 222.2209 137.0978 13.44906896875642"
      },
      "geometry": {
        "type": "Point",
        "coordinates": [
          -101.29789117969564,
          -58.42673773371684
        ]
      }
    },
    {
      "type": "Feature",
      "properties": {
        "norad_id": 18362,
        "name": "OSCAR 29",
        "group": "nnss",
        "lat": -68.61610127986229,
        "lon": -101.1886705350509,
        "alt_km": 1022.665161715503,
        "timestamp": "2025-12-13T18:50:04.699144+00:00",
        "meta_object_name": "OSCAR 29",
        "meta_object_id": "1987-080B",
        "meta_epoch": "2025-12-13T07:10:41.802816",
        "meta_mean_motion": 13.44448531,
        "meta_eccentricity": 0.01039547,
        "meta_inclination": 90.3753,
        "meta_ra_of_asc_node": 79.7522,
        "meta_arg_of_pericenter": 245.5417,
        "meta_mean_anomaly": 173.6244,
        "meta_ephemeris_type": 0,
        "meta_classification_type": "U",
        "meta_norad_cat_id": 18362,
        "meta_element_set_no": 999,
        "meta_rev_at_epoch": 87517,
        "meta_bstar": 0.00019152638,
        "meta_mean_motion_dot": 1.22e-06,
        "meta_mean_motion_ddot": 0,
        "tle_line1": "1 18362U 87080B   25347.29909494  .00000122  00000+0  19153-3 0  9996",
        "tle_line2": "2 18362  90.3753  79.7522 0103954 245.5417 173.6244 13.44448531875173"
      },
      "geometry": {
        "type": "Point",
        "coordinates": [
          -101.1886705350509,
          -68.61610127986229
        ]
      }
    },
    {
      "type": "Feature",
      "properties": {
        "norad_id": 19070,
        "name": "OSCAR 23",
        "group": "nnss",
        "lat": -37.5997009216427,
        "lon": 16.672753427013326,
        "alt_km": 1278.3291014821198,
        "timestamp": "2025-12-13T18:50:04.699155+00:00",
        "meta_object_name": "OSCAR 23",
        "meta_object_id": "1988-033A",
        "meta_epoch": "2025-12-13T08:13:55.937856",
        "meta_mean_motion": 13.27787225,
        "meta_eccentricity": 0.01895805,
        "meta_inclination": 90.3213,
        "meta_ra_of_asc_node": 16.4114,
        "meta_arg_of_pericenter": 178.2447,
        "meta_mean_anomaly": 192.5668,
        "meta_ephemeris_type": 0,
        "meta_classification_type": "U",
        "meta_norad_cat_id": 19070,
        "meta_element_set_no": 999,
        "meta_rev_at_epoch": 82261,
        "meta_bstar": 0.00017608612,
        "meta_mean_motion_dot": 9.6e-07,
        "meta_mean_motion_ddot": 0,
        "tle_line1": "1 19070U 88033A   25347.34300854  .00000096  00000+0  17609-3 0  9997",
        "tle_line2": "2 19070  90.3213  16.4114 0189580 178.2447 192.5668 13.27787225822618"
      },
      "geometry": {
        "type": "Point",
        "coordinates": [
          16.672753427013326,
          -37.5997009216427
        ]
      }
    }
  ]
}